CCSDS_OMM_VERS,COMMENT,CREATION_DATE,ORIGINATOR,OBJECT_NAME,OBJECT_ID,CENTER_NAME,REF_FRAME,TIME_SYSTEM,MEAN_ELEMENT_THEORY,EPOCH,MEAN_MOTION,ECCENTRICITY,INCLINATION,RA_OF_ASC_NODE,ARG_OF_PERICENTER,MEAN_ANOMALY,EPHEMERIS_TYPE,CLASSIFICATION_TYPE,NORAD_CAT_ID,ELEMENT_SET_NO,REV_AT_EPOCH,BSTAR,MEAN_MOTION_DOT,MEAN_MOTION_DDOT,SEMIMAJOR_AXIS,PERIOD,APOAPSIS,PERIAPSIS,OBJECT_TYPE,RCS_SIZE,COUNTRY_CODE,LAUNCH_DATE,SITE,DECAY_DATE,FILE,GP_ID,TLE_LINE0,TLE_LINE1,TLE_LINE2
2,GENERATED VIA SPACE-TRACK.ORG API,2004-08-17T14:46:18,18 SPCS,LEASAT 5,1990-002B,EARTH,TEME,UTC,SGP4,1991-02-02T08:30:30.976415,1.00271026,0.0004996,2.9408,331.0059,68.0592,292.147,0,U,20410,999,298,9.9999e-05,-3.1e-07,0,42164.971,1436.107,35807.902,35765.771,PAYLOAD,MEDIUM,US,1990-01-09,AFETR,,34775,18413955,0 LEASAT 5,1 20410U 90002  B 91033.35452519 -.00000031 +00000-0 +99999-4 0  9992,2 20410 002.9408 331.0059 0004996 068.0592 292.1470 01.00271026002984
2,GENERATED VIA SPACE-TRACK.ORG API,2005-06-09T11:44:05,18 SPCS,LEASAT 5,1990-002B,EARTH,TEME,UTC,SGP4,1991-02-03T08:27:02.291903,1.00271066,0.0005159,2.9422,331.0109,69.0822,291.2317,0,U,20410,999,299,0.0,-2.2e-07,0,42164.96,1436.107,35808.578,35765.072,PAYLOAD,MEDIUM,US,1990-01-09,AFETR,,145815,49594974,0 LEASAT 5,1 20410U 90002  B 91034.35210986 -.00000022 +00000-0 +00000-4 0  9998,2 20410 002.9422 331.0109 0005159 069.0822 291.2317 01.00271066002990
2,GENERATED VIA SPACE-TRACK.ORG API,2005-06-09T11:44:05,18 SPCS,LEASAT 5,1990-002B,EARTH,TEME,UTC,SGP4,1991-02-05T08:19:05.941056,1.00271149,0.0004927,2.9551,330.9986,74.1696,286.1347,0,U,20410,999,301,0.0,-2.2e-07,0,42164.937,1436.106,35807.576,35766.027,PAYLOAD,MEDIUM,US,1990-01-09,AFETR,,145815,49594975,0 LEASAT 5,1 20410U 90002  B 91036.34659654 -.00000022 +00000-0 +00000-4 0  9998,2 20410 002.9551 330.9986 0004927 074.1696 286.1347 01.00271149003014
2,GENERATED VIA SPACE-TRACK.ORG API,2005-06-09T11:44:05,18 SPCS,LEASAT 5,1990-002B,EARTH,TEME,UTC,SGP4,1991-02-06T08:15:10.345536,1.00271327,0.0002778,2.9517,331.0473,141.6703,218.6374,0,U,20410,999,302,0.0,-2.2e-07,0,42164.887,1436.103,35798.465,35775.038,PAYLOAD,MEDIUM,US,1990-01-09,AFETR,,145815,49594976,0 LEASAT 5,1 20410U 90002  B 91037.34386974 -.00000022 +00000-0 +00000-4 0  9991,2 20410 002.9517 331.0473 0002778 141.6703 218.6374 01.00271327003029
2,GENERATED VIA SPACE-TRACK.ORG API,2005-06-09T11:44:05,18 SPCS,LEASAT 5,1990-002B,EARTH,TEME,UTC,SGP4,1991-02-07T08:11:09.174624,1.00271444,0.0003772,2.9475,331.1066,178.5391,181.7117,0,U,20410,999,303,0.0,-2.1e-07,0,42164.854,1436.101,35802.624,35770.814,PAYLOAD,MEDIUM,US,1990-01-09,AFETR,,145815,49594977,0 LEASAT 5,1 20410U 90002  B 91038.34107841 -.00000021 +00000-0 +00000-4 0  9995,2 20410 002.9475 331.1066 0003772 178.5391 181.7117 01.00271444003034
2,GENERATED VIA SPACE-TRACK.ORG API,2004-08-17T14:46:18,18 SPCS,LEASAT 5,1990-002B,EARTH,TEME,UTC,SGP4,1991-02-08T08:07:21.894240,1.00271663,0.0003419,2.9468,331.109,158.2555,202.015,0,U,20410,999,304,9.9999e-05,-3.2e-07,0,42164.793,1436.098,35801.074,35772.241,PAYLOAD,MEDIUM,US,1990-01-09,AFETR,,34775,18413956,0 LEASAT 5,1 20410U 90002  B 91039.33844785 -.00000032 +00000-0 +99999-4 0  9997,2 20410 002.9468 331.1090 0003419 158.2555 202.0150 01.00271663003046
2,GENERATED VIA SPACE-TRACK.ORG API,2005-06-09T11:44:05,18 SPCS,LEASAT 5,1990-002B,EARTH,TEME,UTC,SGP4,1991-02-10T07:59:49.874495,1.00271514,0.0003556,2.9305,331.6116,141.3879,218.4449,0,U,20410,999,306,0.0,-2.1e-07,0,42164.834,1436.1,35801.693,35771.706,PAYLOAD,MEDIUM,US,1990-01-09,AFETR,,145815,49594978,0 LEASAT 5,1 20410U 90002  B 91041.33321614 -.00000021 +00000-0 +00000-4 0  9994,2 20410 002.9305 331.6116 0003556 141.3879 218.4449 01.00271514003063
2,GENERATED VIA SPACE-TRACK.ORG API,2004-08-17T14:46:18,18 SPCS,LEASAT 5,1990-002B,EARTH,TEME,UTC,SGP4,1991-02-15T07:41:48.366816,1.00272126,0.0012503,2.9117,331.8895,209.5595,150.5416,0,U,20410,999,311,9.9999e-05,-3.3e-07,0,42164.663,1436.092,35839.246,35733.809,PAYLOAD,MEDIUM,US,1990-01-09,AFETR,,34775,18413957,0 LEASAT 5,1 20410U 90002  B 91046.32069869 -.00000033 +00000-0 +99999-4 0  9997,2 20410 002.9117 331.8895 0012503 209.5595 150.5416 01.00272126003110
2,GENERATED VIA SPACE-TRACK.ORG API,2005-06-09T11:44:05,18 SPCS,LEASAT 5,1990-002B,EARTH,TEME,UTC,SGP4,1991-02-16T07:39:01.405727,1.00272089,0.0006517,2.9116,331.862,113.4054,246.8459,0,U,20410,999,312,0.0,-1.7e-07,0,42164.673,1436.092,35814.017,35759.059,PAYLOAD,MEDIUM,US,1990-01-09,AFETR,,145815,49594979,0 LEASAT 5,1 20410U 90002  B 91047.31876627 -.00000017 +00000-0 +00000-4 0  9992,2 20410 002.9116 331.8620 0006517 113.4054 246.8459 01.00272089003121
2,GENERATED VIA SPACE-TRACK.ORG API,2004-08-17T14:46:18,18 SPCS,LEASAT 5,1990-002B,EARTH,TEME,UTC,SGP4,1991-02-16T07:39:01.420415,1.00272088,0.0006517,2.9116,331.8621,113.4055,246.8459,0,U,20410,999,312,9.9999e-05,-3.2e-07,0,42164.673,1436.092,35814.017,35759.06,PAYLOAD,MEDIUM,US,1990-01-09,AFETR,,34775,18413958,0 LEASAT 5,1 20410U 90002  B 91047.31876644 -.00000032 +00000-0 +99999-4 0  9993,2 20410 002.9116 331.8621 0006517 113.4055 246.8459 01.00272088003122
2,GENERATED VIA SPACE-TRACK.ORG API,2004-08-17T14:46:18,18 SPCS,LEASAT 5,1990-002B,EARTH,TEME,UTC,SGP4,1991-02-18T07:30:59.923584,1.00272456,0.0004888,2.9172,331.8398,130.4165,229.8465,0,U,20410,999,314,9.9999e-05,-3.2e-07,0,42164.57,1436.087,35807.045,35765.825,PAYLOAD,MEDIUM,US,1990-01-09,AFETR,,34775,18413959,0 LEASAT 5,1 20410U 90002  B 91049.31319356 -.00000032 +00000-0 +99999-4 0  9997,2 20410 002.9172 331.8398 0004888 130.4165 229.8465 01.00272456003144
2,GENERATED VIA SPACE-TRACK.ORG API,2005-06-09T11:44:05,18 SPCS,LEASAT 5,1990-002B,EARTH,TEME,UTC,SGP4,1991-02-18T07:31:15.725279,1.00272359,0.0008931,2.9186,331.8253,89.6869,270.5864,0,U,20410,999,314,0.0,-1.7e-07,0,42164.598,1436.088,35824.12,35748.805,PAYLOAD,MEDIUM,US,1990-01-09,AFETR,,145815,49594980,0 LEASAT 5,1 20410U 90002  B 91049.31337645 -.00000017 +00000-0 +00000-4 0  9996,2 20410 002.9186 331.8253 0008931 089.6869 270.5864 01.00272359003146
2,GENERATED VIA SPACE-TRACK.ORG API,2005-06-09T11:44:05,18 SPCS,LEASAT 5,1990-002B,EARTH,TEME,UTC,SGP4,1991-02-19T07:27:38.648736,1.00272054,0.0011789,2.919,331.8385,88.0877,272.2172,0,U,20410,999,315,0.0,-1.7e-07,0,42164.683,1436.093,35836.256,35736.84,PAYLOAD,MEDIUM,US,1990-01-09,AFETR,,145815,49594981,0 LEASAT 5,1 20410U 90002  B 91050.31086399 -.00000017 +00000-0 +00000-4 0  9995,2 20410 002.9190 331.8385 0011789 088.0877 272.2172 01.00272054003158
2,GENERATED VIA SPACE-TRACK.ORG API,2004-08-17T14:46:18,18 SPCS,LEASAT 5,1990-002B,EARTH,TEME,UTC,SGP4,1991-02-23T07:11:46.855968,1.00271997,0.0013578,2.9117,331.8369,88.277,271.9763,0,U,20410,999,319,9.9999e-05,-3.1e-07,0,42164.699,1436.093,35843.815,35729.313,PAYLOAD,MEDIUM,US,1990-01-09,AFETR,,34775,18413960,0 LEASAT 5,1 20410U 90002  B 91054.29984787 -.00000031 +00000-0 +99999-4 0  9995,2 20410 002.9117 331.8369 0013578 088.2770 271.9763 01.00271997003192
2,GENERATED VIA SPACE-TRACK.ORG API,2005-06-09T11:44:05,18 SPCS,LEASAT 5,1990-002B,EARTH,TEME,UTC,SGP4,1991-02-24T07:08:12.213312,1.00272103,0.0013396,2.9104,331.8298,88.3044,272.0476,0,U,20410,999,320,0.0,-1.7e-07,0,42164.669,1436.092,35843.018,35730.05,PAYLOAD,MEDIUM,US,1990-01-09,AFETR,,145815,49594982,0 LEASAT 5,1 20410U 90002  B 91055.29736358 -.00000017 +00000-0 +00000-4 0  9994,2 20410 002.9104 331.8298 0013396 088.3044 272.0476 01.00272103003207
2,GENERATED VIA SPACE-TRACK.ORG API,2005-06-09T11:44:05,18 SPCS,LEASAT 5,1990-002B,EARTH,TEME,UTC,SGP4,1991-02-25T07:04:13.032192,1.00272595,0.0008137,2.9049,331.847,91.4528,268.9326,0,U,20410,999,321,0.0,-1.6e-07,0,42164.531,1436.085,35820.706,35752.087,PAYLOAD,MEDIUM,US,1990-01-09,AFETR,,145815,49594983,0 LEASAT 5,1 20410U 90002  B 91056.29459528 -.00000016 +00000-0 +00000-4 0  9995,2 20410 002.9049 331.8470 0008137 091.4528 268.9326 01.00272595003210
2,GENERATED VIA SPACE-TRACK.ORG API,2005-06-09T11:44:05,18 SPCS,LEASAT 5,1990-002B,EARTH,TEME,UTC,SGP4,1991-02-25T22:00:00.110016,1.00272405,0.0003627,2.9034,332.3348,93.2084,131.3289,0,U,20410,999,0,0.0,0.0,0,42164.585,1436.088,35801.743,35771.157,PAYLOAD,MEDIUM,US,1990-01-09,AFETR,,145815,49594984,0 LEASAT 5,1 20410U 90002  B 91056.91666794  .00000000 +00000-0 +00000-0 0  9997,2 20410 002.9034 332.3348 0003627 093.2084 131.3289 01.00272405000005
2,GENERATED VIA SPACE-TRACK.ORG API,2005-06-09T11:44:05,18 SPCS,LEASAT 5,1990-002B,EARTH,TEME,UTC,SGP4,1991-03-02T06:43:09.282719,1.00272605,0.0007824,2.8992,331.8681,94.2686,265.7574,0,U,20410,999,326,0.0,-1.8e-07,0,42164.529,1436.085,35819.383,35753.404,PAYLOAD,MEDIUM,US,1990-01-09,AFETR,,145815,49594985,0 LEASAT 5,1 20410U 90002  B 91061.27996855 -.00000018 +00000-0 +00000-4 0  9990,2 20410 002.8992 331.8681 0007824 094.2686 265.7574 01.00272605003265
2,GENERATED VIA SPACE-TRACK.ORG API,2005-06-09T11:44:05,18 SPCS,LEASAT 5,1990-002B,EARTH,TEME,UTC,SGP4,1991-03-04T06:35:18.470975,1.00272836,0.0007273,2.8981,331.8501,93.7569,266.304,0,U,20410,999,328,0.0,-1.8e-07,0,42164.464,1436.081,35816.995,35755.663,PAYLOAD,MEDIUM,US,1990-01-09,AFETR,,145815,49594986,0 LEASAT 5,1 20410U 90002  B 91063.27451934 -.00000018 +00000-0 +00000-4 0  9996,2 20410 002.8981 331.8501 0007273 093.7569 266.3040 01.00272836003289
2,GENERATED VIA SPACE-TRACK.ORG API,2005-06-09T11:44:05,18 SPCS,LEASAT 5,1990-002B,EARTH,TEME,UTC,SGP4,1991-03-06T06:27:38.206080,1.00273889,0.0002032,2.8939,331.9843,100.2871,259.7666,0,U,20410,999,330,0.0,-1.7e-07,0,42164.169,1436.066,35794.601,35777.466,PAYLOAD,MEDIUM,US,1990-01-09,AFETR,,145815,49594987,0 LEASAT 5,1 20410U 90002  B 91065.26919220 -.00000017 +00000-0 +00000-4 0  9993,2 20410 002.8939 331.9843 0002032 100.2871 259.7666 01.00273889003302
